{
  "norad_id": 65458,
  "name": "STARLINK-34784",
  "history": [
    {
      "epoch": "2026-03-28T13:05:44.243808Z",
      "apogee_km": 476.20887679191856,
      "perigee_km": 474.169326944002,
      "latitude_deg": -4.27353850387303e-05,
      "longitude_deg": 147.98806503375437,
      "height_km": 475.8507627368582,
      "semi_major_axis_km": 6853.32610186796,
      "eccentricity": 0.0001488,
      "inclination_deg": 53.1592,
      "raan_deg": 170.387,
      "arg_perigee_deg": 76.6135,
      "mean_anomaly_deg": 283.5031,
      "mean_motion_rev_day": 15.30208697
    },
    {
      "epoch": "2026-03-29T22:00:51.372864Z",
      "apogee_km": 476.2721300743369,
      "perigee_km": 474.08441477307315,
      "latitude_deg": -2.812814461977033e-05,
      "longitude_deg": 6.4845510139053175,
      "height_km": 475.94904262218046,
      "semi_major_axis_km": 6853.315272423704,
      "eccentricity": 0.00015961,
      "inclination_deg": 53.1593,
      "raan_deg": 164.0151,
      "arg_perigee_deg": 83.3432,
      "mean_anomaly_deg": 276.775,
      "mean_motion_rev_day": 15.30212324
    },
    {
      "epoch": "2026-03-30T13:41:23.608896Z",
      "apogee_km": 476.1413337368713,
      "perigee_km": 474.3061407986461,
      "latitude_deg": -3.192551428844682e-05,
      "longitude_deg": 127.67265720110117,
      "height_km": 475.9857343372376,
      "semi_major_axis_km": 6853.360737267758,
      "eccentricity": 0.00013389,
      "inclination_deg": 53.1582,
      "raan_deg": 160.9813,
      "arg_perigee_deg": 81.4882,
      "mean_anomaly_deg": 278.627,
      "mean_motion_rev_day": 15.30197097
    },
    {
      "epoch": "2026-03-30T15:15:26.706528Z",
      "apogee_km": 475.946981742155,
      "perigee_km": 474.42321410690147,
      "latitude_deg": 3.9977985907272245e-05,
      "longitude_deg": 103.79362799958322,
      "height_km": 476.01096706643256,
      "semi_major_axis_km": 6853.322097924528,
      "eccentricity": 0.00011117,
      "inclination_deg": 53.1585,
      "raan_deg": 160.6795,
      "arg_perigee_deg": 84.5572,
      "mean_anomaly_deg": 275.5556,
      "mean_motion_rev_day": 15.30210038
    },
    {
      "epoch": "2026-03-31T11:38:08.080800Z",
      "apogee_km": 476.92863917150135,
      "perigee_km": 473.64365638830714,
      "latitude_deg": -3.063658099478822e-05,
      "longitude_deg": 153.34238241260547,
      "height_km": 476.42375813336406,
      "semi_major_axis_km": 6853.423147779904,
      "eccentricity": 0.00023966,
      "inclination_deg": 53.1568,
      "raan_deg": 156.7376,
      "arg_perigee_deg": 98.4543,
      "mean_anomaly_deg": 261.6729,
      "mean_motion_rev_day": 15.30176195
    },
    {
      "epoch": "2026-04-01T20:33:15.223680Z",
      "apogee_km": 475.7651204439644,
      "perigee_km": 474.5479755098431,
      "latitude_deg": -4.403898441914331e-05,
      "longitude_deg": 11.836591255416565,
      "height_km": 475.7291560699619,
      "semi_major_axis_km": 6853.293547976903,
      "eccentricity": 8.88e-05,
      "inclination_deg": 53.1568,
      "raan_deg": 150.3635,
      "arg_perigee_deg": 57.6281,
      "mean_anomaly_deg": 302.4805,
      "mean_motion_rev_day": 15.302196
    }
  ]
}